KUIPER-00229            
1 68578U 26072F   26099.50458986  .00008131  00000+0  23228-3 0  9994
2 68578  51.8698 149.1008 0007750 119.7287 240.4471 15.36887847   818
KUIPER-00230            
1 68579U 26072G   26099.43425812  .00021452  00000+0  56340-3 0  9991
2 68579  51.8754 149.3662 0001763  91.2354 268.8835 15.38558398   802
KUIPER-00231            
1 68580U 26072H   26099.50085480  .00018378  00000+0  49329-3 0  9996
2 68580  51.8735 149.0710 0002972 106.5140 253.6174 15.37990269   815
KUIPER-00234            
1 68581U 26072J   26099.50001904  .00019781  00000+0  52514-3 0  9995
2 68581  51.8748 149.0639 0002315  89.0364 271.0888 15.38279753   819
KUIPER-00236            
1 68582U 26072K   26099.50004620  .00020276  00000+0  53960-3 0  9991
2 68582  51.8751 149.0621 0002799  92.9673 267.1635 15.38186598   817
KUIPER-00244            
1 68583U 26072L   26099.50157134  .00018891  00000+0  50980-3 0  9990
2 68583  51.8746 149.0725 0004063 111.4311 248.7110 15.37801038   814
KUIPER-00253            
1 68584U 26072M   26099.50300503  .00019703  00000+0  53839-3 0  9990
2 68584  51.8708 149.0898 0005796 119.9832 240.1731 15.37378144   811
KUIPER-00254            
1 68585U 26072N   26099.50487879  .00015690  00000+0  43827-3 0  9990
2 68585  51.8713 149.1007 0007632 125.1432 235.0271 15.36854703   818
KUIPER-00263            
1 68586U 26072P   26099.49931870  .00018377  00000+0  48541-3 0  9997
2 68586  51.8756 149.0548 0002067  62.5917 297.5280 15.38487416   812
KUIPER-00269            
1 68587U 26072Q   26099.50209349  .00000642  00000+0  27693-4 0  9991
2 68587  51.8732 149.0800 0004719 103.3397 256.8116 15.37536743   813
KUIPER-00272            
1 68588U 26072R   26099.50324224  .00023089  00000+0  63054-3 0  9992
2 68588  51.8717 149.0902 0006012 116.9423 243.2179 15.37292994   814
KUIPER-00285            
1 68589U 26072S   26099.50362714  .00020440  00000+0  56126-3 0  9999
2 68589  51.8728 149.0916 0006527 123.1301 237.0313 15.37198204   818
KUIPER-00286            
1 68590U 26072T   26099.50213942  .00019286  00000+0  52325-3 0  9992
2 68590  51.8723 149.0813 0004280 104.9491 255.1970 15.37620751   819
KUIPER-00289            
1 68591U 26072U   26099.50816086  .00018145  00000+0  52031-3 0  9998
2 68591  51.8650 149.1255 0011064 138.2553 221.9279 15.35891916   811
KUIPER-00290            
1 68592U 26072V   26099.50784576  .00018320  00000+0  52367-3 0  9994
2 68592  51.8635 149.1238 0011061 134.7713 225.4175 15.35984232   810
KUIPER-00293            
1 68593U 26072W   26099.50909527  .00019522  00000+0  56351-3 0  9992
2 68593  51.8633 149.1311 0012054 140.9919 219.1939 15.35620815   813
